SL-16 R/B               
1 28353U 04021B   25216.71985732 -.00000020  00000+0  14230-4 0  9992
2 28353  71.0021 327.8079 0005140 344.8181  15.2786 14.14550594 92153
CZ-4B R/B               
1 28415U 04035C   25216.52673570  .00006582  00000+0  26348-3 0  9999
2 28415  97.3777 248.7139 0035632  19.7730 340.4880 15.24805669146770
CZ-2C R/B               
1 28480U 04046B   25216.39078712  .00000164  00000+0  75733-4 0  9998
2 28480  98.1916 139.9450 0140951  77.5652 284.1262 14.26851006 77519
ARIANE 5 R/B            
1 28499U 04049H   25216.45468500  .00000612  00000+0  75317-4 0  9992
2 28499  98.2398  12.2064 0084644 335.7866  23.9379 14.84597012113551
CZ-2D R/B               
1 28738U 05024B   25216.93609772  .00018643  00000+0  39087-3 0  9999
2 28738  97.3691 221.7162 0008412 101.4748 258.7446 15.45414227106161
ALOS (DAICHI)           
1 28931U 06002A   25216.81516992  .00001531  00000+0  27034-3 0  9996
2 28931  98.0868 169.4504 0000745  94.2943 265.8348 14.68862789 41639
H-2A R/B                
1 28932U 06002B   25216.75647657  .00006784  00000+0  38968-3 0  9996
2 28932  98.2168 341.3744 0056903 257.0236 102.4634 15.11509985 61612
RESURS-DK 1             
1 29228U 06021A   25216.86762109  .00002044  00000+0  12776-3 0  9992
2 29228  69.9332  77.1959 0001752  95.5183 264.6182 15.11183624 54753
CZ-4B R/B               
1 29507U 06046C   25216.84760529  .00003783  00000+0  20820-3 0  9991
2 29507  97.5929 257.3365 0033721 298.4784  61.3052 15.14189926 27209
CZ-2C R/B               
1 31114U 07010B   25216.80147814  .00000119  00000+0  73843-4 0  9996
2 31114  98.3844 336.0967 0058637 203.8318 156.0143 14.20142626948937
COSMO-SKYMED 1          
1 31598U 07023A   25216.95238949  .00000552  00000+0  56396-4 0  9997
2 31598  97.8889  41.5946 0001373  86.0716 274.0660 14.94625933982503
GENESIS 2               
1 31789U 07028A   25216.93177777  .00231001  27455-4  61469-3 0  9992
2 31789  64.4660 213.4348 0024042 300.5992  59.2796 15.93845982  1857
COSMOS 2428             
1 31792U 07029A   25216.61254115  .00000176  00000+0  12041-3 0  9995
2 31792  70.9442 299.0265 0005197 232.5288 127.5361 14.12897629933431
SL-16 R/B               
1 31793U 07029B   25216.88440953 -.00000267  00000+0 -11365-3 0  9993
2 31793  70.9741 268.1094 0002709 278.0367 254.5266 14.14788961934706
KORONAS-FOTON           
1 33504U 09003A   25216.79128905  .00008485  00000+0  22923-3 0  9999
2 33504  82.4339 140.3091 0010746 205.3086 154.7633 15.37520144912357
CZ-2C R/B               
1 37731U 11030B   25216.82843494  .00001445  00000+0  19203-3 0  9995
2 37731  97.8181 174.0475 0052842 337.6406  44.1340 14.80335766758004
H-2A R/B                
1 38341U 12025E   25216.82353170  .00002060  00000+0  19946-3 0  9993
2 38341  98.4380 162.3493 0044996 302.6152  57.0726 14.93277452715837
SHIJIAN-16 (SJ-16)      
1 39358U 13057A   25216.89159360  .00000796  00000+0  82230-4 0  9991
2 39358  74.9697 235.2177 0018357 279.2106  80.7005 14.91478965639170
SL-4 R/B                
1 39679U 14021B   25216.67180548  .00008621  00000+0  23414-3 0  9990
2 39679  51.6098 310.4232 0111417  35.7293 325.1079 15.32402657622927
ALOS-2                  
1 39766U 14029A   25216.88794565  .00000923  00000+0  13048-3 0  9997
2 39766  97.9230 313.5935 0001604  98.4900 261.6493 14.79460083604815
YAOGAN-29               
1 41038U 15069A   25216.91658782  .00000433  00000+0  60433-4 0  9998
2 41038  98.0337 239.5634 0001494  31.2473 328.8829 14.82686424523755
ASTRO-H (HITOMI)        
1 41337U 16012A   25216.69168243  .00002742  00000+0  16664-3 0  9993
2 41337  31.0011 314.9973 0009895 313.1931  46.7880 15.08279681519425
HXMT (HUIYAN)           
1 42758U 17034A   25216.92525275  .00004951  00000+0  27434-3 0  9995
2 42758  43.0142 138.8316 0035390 305.6997  54.0559 15.14257196449647
CZ-2C R/B               
1 43521U 18054D   25216.59531546  .00030007  00000+0  41967-3 0  9996
2 43521  35.1391 328.4954 0031275 349.0005  11.0036 15.55218701394689
SAOCOM 1A               
1 43641U 18076A   25216.91656092 -.00000350  00000+0 -37456-4 0  9992
2 43641  97.8898  43.1933 0001392  91.0992 269.0381 14.82144002369257
H-2A R/B                
1 43682U 18084L   25216.91089485  .00012208  00000+0  39433-3 0  9991
2 43682  98.8803  24.7574 0031775  51.4081 308.9994 15.31816249372499
SAOCOM 1B               
1 46265U 20059A   25216.94785261  .00000414  00000+0  58538-4 0  9998
2 46265  97.8902  42.3286 0001417  90.8089 269.3287 14.82151982266644
CSS (TIANHE)            
1 48274U 21035A   25216.91215713  .00021763  00000+0  29098-3 0  9990
2 48274  41.4650  85.3842 0004649  67.1096 293.0232 15.57510445243758
COSMOS 2550             
1 48865U 21056A   25216.89778310  .00005034  00000+0  15869-3 0  9997
2 48865  67.1441 336.7507 0008409 270.4268  89.5923 15.33837351230210
CZ-2C R/B               
1 52794U 22058K   25216.75676541  .00015108  00000+0  34589-3 0  9997
2 52794  50.1944 342.3526 0055006  15.6361 344.6288 15.41380164176546
GSLV R/B                
1 54149U 22138AN  25216.78211413  .00002012  00000+0  18071-3 0  9996
2 54149  87.3761 238.9814 0020714 213.3338 146.6590 14.95025293151502
XRISM                   
1 57800U 23137A   25216.75338850  .00003246  00000+0  19737-3 0  9995
2 57800  31.0011 243.5025 0007868  20.3992 339.6959 15.08484086104972
ACS3                    
1 59588U 24077B   25216.72652764  .00014017  00000+0  13359-1 0  9994
2 59588  97.4291 200.6847 0072937  37.1053 323.5115 13.79477129 64182
